LEMUR-2-HUBBLE-4        
1 64565U 25135AP  26199.28970475  .00000465  00000+0  49345-4 0  9994
2 64565  97.7722 312.8365 0002899 154.5978 205.5384 14.93690492 58510
LEMUR-2-SEJONG-2        
1 64586U 25135BL  26199.18947657  .00002337  00000+0  20858-3 0  9999
2 64586  97.7709 314.0060 0004153 204.4160 155.6865 14.96925635 58586
LEMUR-2-HUBBLE-5        
1 64840U 25135BT  26199.02958417  .00000375  00000+0  40306-4 0  9992
2 64840  97.7742 313.2515 0004507 223.8608 136.2255 14.94217355 58519
LEMUR-2-KARENDARRELL    
1 64841U 25135BU  26198.86387841  .00004039  00000+0  32469-3 0  9992
2 64841  97.7722 315.0336 0012690  96.6097 263.6572 15.00521478 58619
LEMUR-2-LUCILLE-ROSE    
1 65403U 25135BV  26199.03741339  .00003417  00000+0  27539-3 0  9994
2 65403  97.7706 315.2421 0015219 180.5819 179.5389 15.00508221 53266
LEMUR-2-AFFIE-WAUWIE    
1 66295U 25248C   26199.31078382  .00012645  00000+0  45936-3 0  9995
2 66295  45.3920 306.2107 0009165 269.5503  90.4336 15.28338780 39353
OTTER SDM               
1 66678U 25276N   26199.19129110  .00002887  00000+0  13688-3 0  9999
2 66678  97.4198 272.1578 0004470 240.2344 119.8447 15.20076153 35124
LEMUR-2-STAS-GORBUK     
1 66686U 25276W   26199.14766451  .00002798  00000+0  13433-3 0  9997
2 66686  97.4233 272.1663 0003771 233.5789 126.5098 15.19675181 35119
LEMUR-2-TEODOR          
1 66768U 25276DG  26199.16318509  .00002911  00000+0  13300-3 0  9997
2 66768  97.4137 272.4569 0002188  85.3117 274.8369 15.21355081 35159
LEMUR-2-LAILA           
1 66776U 25276DQ  26199.13254563  .00002913  00000+0  13225-3 0  9990
2 66776  97.4160 272.5673 0002871  90.0248 270.1317 15.21581149 35156
LEMUR-2-CELIJO-SB-PK    
1 66781U 25276DW  26199.18617150  .00002908  00000+0  23647-3 0  9999
2 66781  97.5186 268.9404 0006825  57.0953 303.0927 15.00302816 27277
LEMUR-2-FINNIAN         
1 66782U 25276DX  26198.42230088  .00001385  00000+0  11408-3 0  9997
2 66782  97.5344 268.4746 0007425 350.8943   9.2145 15.00631674 24538
LEMUR-2-STARLIGHT       
1 66783U 25276DY  26199.13887505  .00003810  00000+0  31536-3 0  9998
2 66783  97.5232 268.7205 0014707  38.5159 321.7111 14.99377389 34834
LEMUR-2-TARTIFLETTE     
1 66784U 25276DZ  26199.13730808  .00003443  00000+0  28564-3 0  9991
2 66784  97.5232 268.7268 0013884  47.0055 313.2330 14.99360163 34830
LEMUR-2-VUKASIN         
1 66785U 25276EA  26199.17199224  .00002289  00000+0  18594-3 0  9996
2 66785  97.5212 269.1239 0002588  45.3127 314.8308 15.00560911 34795
LEMUR-2-HOTSPUR-TOM     
1 66786U 25276EB  26199.13190590  .00002821  00000+0  23552-3 0  9992
2 66786  97.5213 268.6947 0013689  38.6600 321.5601 14.99258162 34769
